GLOBALSTAR M075         
1 37192U 10054E   26094.96115382 -.00000074  00000+0  16359-3 0  9996
2 37192  51.9974  13.1487 0000642  76.3355   3.9582 12.62265504712699
GLOBALSTAR M073         
1 37193U 10054F   26094.72385637 -.00000086  00000+0  98216-4 0  9999
2 37193  52.0060 287.9173 0000681 113.5754 326.8760 12.62266195714651
GLOBALSTAR M083         
1 37739U 11033A   26094.83433858 -.00000082  00000+0  11891-3 0  9993
2 37739  51.9850 235.9073 0000738 131.2410  33.3382 12.62262222683688
GLOBALSTAR M088         
1 37740U 11033B   26094.89257892 -.00000072  00000+0  17954-3 0  9998
2 37740  52.0200 141.9821 0000313 113.1917  74.2353 12.62262852679235
GLOBALSTAR M091         
1 37741U 11033C   26094.42412031 -.00000100  00000+0  20360-4 0  9994
2 37741  51.9981 106.4794 0000404 106.0884  52.7180 12.62270817679969
GLOBALSTAR M085         
1 37742U 11033D   26094.85478616 -.00000111  00000+0 -40595-4 0  9998
2 37742  52.0132  56.3938 0000544  95.2473 281.7074 12.62269985680536
GLOBALSTAR M081         
1 37743U 11033E   26094.27478405 -.00000110  00000+0 -36145-4 0  9996
2 37743  51.9961  60.6801 0000296  82.9443  56.5472 12.62263376680602
GLOBALSTAR M089         
1 37744U 11033F   26094.93438027 -.00000081  00000+0  12846-3 0  9993
2 37744  51.9959  12.8473 0000517  45.2027  33.2891 12.62265449681533
GLOBALSTAR M084         
1 38040U 11080A   26094.88815010 -.00000095  00000+0  50531-4 0  9999
2 38040  51.9999 240.4308 0000458 100.4804  67.7171 12.62266117659502
GLOBALSTAR M080         
1 38041U 11080B   26094.85879868 -.00000096  00000+0  41689-4 0  9993
2 38041  52.0051 242.2135 0001151 107.1308  57.2504 12.62268015659622
GLOBALSTAR M082         
1 38042U 11080C   26094.60346947 -.00000077  00000+0  14854-3 0  9996
2 38042  52.0068 198.4834 0000919 119.7393 253.8481 12.62268731660303
GLOBALSTAR M092         
1 38043U 11080D   26094.83416014 -.00000069  00000+0  19621-3 0  9993
2 38043  52.0083 288.1758 0000755  93.2855   8.7125 12.62265792658785
GLOBALSTAR M090         
1 38044U 11080E   26094.74271496 -.00000079  00000+0  13585-3 0  9991
2 38044  52.0123 191.9915 0000600 130.8196  35.0622 12.62267683660433
GLOBALSTAR M086         
1 38045U 11080F   26094.57375672 -.00000068  00000+0  20169-3 0  9998
2 38045  51.9893 192.5565 0000830 218.9119 154.8379 12.62284822660367
GLOBALSTAR M097         
1 39072U 13005A   26094.44178368 -.00000101  00000+0  15351-4 0  9993
2 39072  52.0031 107.8186 0000362 125.2706 234.8195 12.62260238607590
GLOBALSTAR M093         
1 39073U 13005B   26094.33641792 -.00000100  00000+0  22712-4 0  9996
2 39073  52.0092 101.4601 0000416 145.0491 215.0403 12.62264405607538
