[{"OBJECT_NAME":"GLOBALSTAR M075","OBJECT_ID":"2010-054E","EPOCH":"2026-04-04T23:04:03.690048","MEAN_MOTION":12.62265504,"ECCENTRICITY":6.42e-5,"INCLINATION":51.9974,"RA_OF_ASC_NODE":13.1487,"ARG_OF_PERICENTER":76.3355,"MEAN_ANOMALY":3.9582,"EPHEMERIS_TYPE":0,"CLASSIFICATION_TYPE":"U","NORAD_CAT_ID":37192,"ELEMENT_SET_NO":999,"REV_AT_EPOCH":71269,"BSTAR":0.00016359081,"MEAN_MOTION_DOT":-7.4e-7,"MEAN_MOTION_DDOT":0},{"OBJECT_NAME":"GLOBALSTAR M073","OBJECT_ID":"2010-054F","EPOCH":"2026-04-04T17:22:21.190368","MEAN_MOTION":12.62266195,"ECCENTRICITY":6.815e-5,"INCLINATION":52.006,"RA_OF_ASC_NODE":287.9173,"ARG_OF_PERICENTER":113.5754,"MEAN_ANOMALY":326.876,"EPHEMERIS_TYPE":0,"CLASSIFICATION_TYPE":"U","NORAD_CAT_ID":37193,"ELEMENT_SET_NO":999,"REV_AT_EPOCH":71465,"BSTAR":9.8216e-5,"MEAN_MOTION_DOT":-8.6e-7,"MEAN_MOTION_DDOT":0},{"OBJECT_NAME":"GLOBALSTAR M083","OBJECT_ID":"2011-033A","EPOCH":"2026-04-04T20:01:26.853312","MEAN_MOTION":12.62262222,"ECCENTRICITY":7.385e-5,"INCLINATION":51.985,"RA_OF_ASC_NODE":235.9073,"ARG_OF_PERICENTER":131.241,"MEAN_ANOMALY":33.3382,"EPHEMERIS_TYPE":0,"CLASSIFICATION_TYPE":"U","NORAD_CAT_ID":37739,"ELEMENT_SET_NO":999,"REV_AT_EPOCH":68368,"BSTAR":0.00011891252,"MEAN_MOTION_DOT":-8.2e-7,"MEAN_MOTION_DDOT":0},{"OBJECT_NAME":"GLOBALSTAR M088","OBJECT_ID":"2011-033B","EPOCH":"2026-04-04T21:25:18.818688","MEAN_MOTION":12.62262852,"ECCENTRICITY":3.134e-5,"INCLINATION":52.02,"RA_OF_ASC_NODE":141.9821,"ARG_OF_PERICENTER":113.1917,"MEAN_ANOMALY":74.2353,"EPHEMERIS_TYPE":0,"CLASSIFICATION_TYPE":"U","NORAD_CAT_ID":37740,"ELEMENT_SET_NO":999,"REV_AT_EPOCH":67923,"BSTAR":0.00017954497,"MEAN_MOTION_DOT":-7.2e-7,"MEAN_MOTION_DDOT":0},{"OBJECT_NAME":"GLOBALSTAR M091","OBJECT_ID":"2011-033C","EPOCH":"2026-04-04T10:10:43.994784","MEAN_MOTION":12.62270817,"ECCENTRICITY":4.043e-5,"INCLINATION":51.9981,"RA_OF_ASC_NODE":106.4794,"ARG_OF_PERICENTER":106.0884,"MEAN_ANOMALY":52.718,"EPHEMERIS_TYPE":0,"CLASSIFICATION_TYPE":"U","NORAD_CAT_ID":37741,"ELEMENT_SET_NO":999,"REV_AT_EPOCH":67996,"BSTAR":2.0360006e-5,"MEAN_MOTION_DOT":-1.0e-6,"MEAN_MOTION_DDOT":0},{"OBJECT_NAME":"GLOBALSTAR M085","OBJECT_ID":"2011-033D","EPOCH":"2026-04-04T20:30:53.524224","MEAN_MOTION":12.62269985,"ECCENTRICITY":5.444e-5,"INCLINATION":52.0132,"RA_OF_ASC_NODE":56.3938,"ARG_OF_PERICENTER":95.2473,"MEAN_ANOMALY":281.7074,"EPHEMERIS_TYPE":0,"CLASSIFICATION_TYPE":"U","NORAD_CAT_ID":37742,"ELEMENT_SET_NO":999,"REV_AT_EPOCH":68053,"BSTAR":-4.0594992e-5,"MEAN_MOTION_DOT":-1.11e-6,"MEAN_MOTION_DDOT":0},{"OBJECT_NAME":"GLOBALSTAR M081","OBJECT_ID":"2011-033E","EPOCH":"2026-04-04T06:35:41.341920","MEAN_MOTION":12.62263376,"ECCENTRICITY":2.969e-5,"INCLINATION":51.9961,"RA_OF_ASC_NODE":60.6801,"ARG_OF_PERICENTER":82.9443,"MEAN_ANOMALY":56.5472,"EPHEMERIS_TYPE":0,"CLASSIFICATION_TYPE":"U","NORAD_CAT_ID":37743,"ELEMENT_SET_NO":999,"REV_AT_EPOCH":68060,"BSTAR":-3.6145462e-5,"MEAN_MOTION_DOT":-1.1e-6,"MEAN_MOTION_DDOT":0},{"OBJECT_NAME":"GLOBALSTAR M089","OBJECT_ID":"2011-033F","EPOCH":"2026-04-04T22:25:30.455328","MEAN_MOTION":12.62265449,"ECCENTRICITY":5.173e-5,"INCLINATION":51.9959,"RA_OF_ASC_NODE":12.8473,"ARG_OF_PERICENTER":45.2027,"MEAN_ANOMALY":33.2891,"EPHEMERIS_TYPE":0,"CLASSIFICATION_TYPE":"U","NORAD_CAT_ID":37744,"ELEMENT_SET_NO":999,"REV_AT_EPOCH":68153,"BSTAR":0.00012846447,"MEAN_MOTION_DOT":-8.1e-7,"MEAN_MOTION_DDOT":0},{"OBJECT_NAME":"GLOBALSTAR M084","OBJECT_ID":"2011-080A","EPOCH":"2026-04-04T21:18:56.168640","MEAN_MOTION":12.62266117,"ECCENTRICITY":4.584e-5,"INCLINATION":51.9999,"RA_OF_ASC_NODE":240.4308,"ARG_OF_PERICENTER":100.4804,"MEAN_ANOMALY":67.7171,"EPHEMERIS_TYPE":0,"CLASSIFICATION_TYPE":"U","NORAD_CAT_ID":38040,"ELEMENT_SET_NO":999,"REV_AT_EPOCH":65950,"BSTAR":5.0531135e-5,"MEAN_MOTION_DOT":-9.5e-7,"MEAN_MOTION_DDOT":0},{"OBJECT_NAME":"GLOBALSTAR M080","OBJECT_ID":"2011-080B","EPOCH":"2026-04-04T20:36:40.205952","MEAN_MOTION":12.62268015,"ECCENTRICITY":0.00011515,"INCLINATION":52.0051,"RA_OF_ASC_NODE":242.2135,"ARG_OF_PERICENTER":107.1308,"MEAN_ANOMALY":57.2504,"EPHEMERIS_TYPE":0,"CLASSIFICATION_TYPE":"U","NORAD_CAT_ID":38041,"ELEMENT_SET_NO":999,"REV_AT_EPOCH":65962,"BSTAR":4.1688891e-5,"MEAN_MOTION_DOT":-9.6e-7,"MEAN_MOTION_DDOT":0},{"OBJECT_NAME":"GLOBALSTAR M082","OBJECT_ID":"2011-080C","EPOCH":"2026-04-04T14:28:59.762208","MEAN_MOTION":12.62268731,"ECCENTRICITY":9.19e-5,"INCLINATION":52.0068,"RA_OF_ASC_NODE":198.4834,"ARG_OF_PERICENTER":119.7393,"MEAN_ANOMALY":253.8481,"EPHEMERIS_TYPE":0,"CLASSIFICATION_TYPE":"U","NORAD_CAT_ID":38042,"ELEMENT_SET_NO":999,"REV_AT_EPOCH":66030,"BSTAR":0.00014854,"MEAN_MOTION_DOT":-7.7e-7,"MEAN_MOTION_DDOT":0},{"OBJECT_NAME":"GLOBALSTAR M092","OBJECT_ID":"2011-080D","EPOCH":"2026-04-04T20:01:11.436096","MEAN_MOTION":12.62265792,"ECCENTRICITY":7.557e-5,"INCLINATION":52.0083,"RA_OF_ASC_NODE":288.1758,"ARG_OF_PERICENTER":93.2855,"MEAN_ANOMALY":8.7125,"EPHEMERIS_TYPE":0,"CLASSIFICATION_TYPE":"U","NORAD_CAT_ID":38043,"ELEMENT_SET_NO":999,"REV_AT_EPOCH":65878,"BSTAR":0.00019621054,"MEAN_MOTION_DOT":-6.9e-7,"MEAN_MOTION_DDOT":0},{"OBJECT_NAME":"GLOBALSTAR M090","OBJECT_ID":"2011-080E","EPOCH":"2026-04-04T17:49:30.572544","MEAN_MOTION":12.62267683,"ECCENTRICITY":6.002e-5,"INCLINATION":52.0123,"RA_OF_ASC_NODE":191.9915,"ARG_OF_PERICENTER":130.8196,"MEAN_ANOMALY":35.0622,"EPHEMERIS_TYPE":0,"CLASSIFICATION_TYPE":"U","NORAD_CAT_ID":38044,"ELEMENT_SET_NO":999,"REV_AT_EPOCH":66043,"BSTAR":0.00013584937,"MEAN_MOTION_DOT":-7.9e-7,"MEAN_MOTION_DDOT":0},{"OBJECT_NAME":"GLOBALSTAR M086","OBJECT_ID":"2011-080F","EPOCH":"2026-04-04T13:46:12.580608","MEAN_MOTION":12.62284822,"ECCENTRICITY":8.3e-5,"INCLINATION":51.9893,"RA_OF_ASC_NODE":192.5565,"ARG_OF_PERICENTER":218.9119,"MEAN_ANOMALY":154.8379,"EPHEMERIS_TYPE":0,"CLASSIFICATION_TYPE":"U","NORAD_CAT_ID":38045,"ELEMENT_SET_NO":999,"REV_AT_EPOCH":66036,"BSTAR":0.00020169,"MEAN_MOTION_DOT":-6.8e-7,"MEAN_MOTION_DDOT":0},{"OBJECT_NAME":"GLOBALSTAR M097","OBJECT_ID":"2013-005A","EPOCH":"2026-04-04T10:36:10.109952","MEAN_MOTION":12.62260238,"ECCENTRICITY":3.627e-5,"INCLINATION":52.0031,"RA_OF_ASC_NODE":107.8186,"ARG_OF_PERICENTER":125.2706,"MEAN_ANOMALY":234.8195,"EPHEMERIS_TYPE":0,"CLASSIFICATION_TYPE":"U","NORAD_CAT_ID":39072,"ELEMENT_SET_NO":999,"REV_AT_EPOCH":60759,"BSTAR":1.5350736e-5,"MEAN_MOTION_DOT":-1.01e-6,"MEAN_MOTION_DDOT":0},{"OBJECT_NAME":"GLOBALSTAR M093","OBJECT_ID":"2013-005B","EPOCH":"2026-04-04T08:04:26.508288","MEAN_MOTION":12.62264405,"ECCENTRICITY":4.163e-5,"INCLINATION":52.0092,"RA_OF_ASC_NODE":101.4601,"ARG_OF_PERICENTER":145.0491,"MEAN_ANOMALY":215.0403,"EPHEMERIS_TYPE":0,"CLASSIFICATION_TYPE":"U","NORAD_CAT_ID":39073,"ELEMENT_SET_NO":999,"REV_AT_EPOCH":60753,"BSTAR":2.271237e-5,"MEAN_MOTION_DOT":-1.0e-6,"MEAN_MOTION_DDOT":0}]
